{
    "links": {
        "self": "http://www.neowsapp.com/rest/v1/neo/54016611?api_key=iIulBulltgU6a56xZRHN4H3l9WmuAYTsLGpBGhQ2"
    },
    "id": "54016611",
    "neo_reference_id": "54016611",
    "name": "(2020 HW1)",
    "designation": "2020 HW1",
    "nasa_jpl_url": "http://ssd.jpl.nasa.gov/sbdb.cgi?sstr=54016611",
    "absolute_magnitude_h": 19.34,
    "estimated_diameter": {
        "kilometers": {
            "estimated_diameter_min": 0.3602093458,
            "estimated_diameter_max": 0.8054525833
        },
        "meters": {
            "estimated_diameter_min": 360.2093458029,
            "estimated_diameter_max": 805.452583346
        },
        "miles": {
            "estimated_diameter_min": 0.2238236414,
            "estimated_diameter_max": 0.5004848772
        },
        "feet": {
            "estimated_diameter_min": 1181.789230084,
            "estimated_diameter_max": 2642.561053545
        }
    },
    "is_potentially_hazardous_asteroid": false,
    "close_approach_data": [
        {
            "close_approach_date": "2004-01-07",
            "close_approach_date_full": "2004-Jan-07 18:02",
            "epoch_date_close_approach": 1073498520000,
            "relative_velocity": {
                "kilometers_per_second": "30.3636834047",
                "kilometers_per_hour": "109309.2602569927",
                "miles_per_hour": "67920.5234080186"
            },
            "miss_distance": {
                "astronomical": "0.3740819502",
                "lunar": "145.5178786278",
                "kilometers": "55961862.955366074",
                "miles": "34773089.1908928612"
            },
            "orbiting_body": "Earth"
        },
        {
            "close_approach_date": "2016-04-25",
            "close_approach_date_full": "2016-Apr-25 12:12",
            "epoch_date_close_approach": 1461586320000,
            "relative_velocity": {
                "kilometers_per_second": "6.591666292",
                "kilometers_per_hour": "23729.9986513126",
                "miles_per_hour": "14744.8983286448"
            },
            "miss_distance": {
                "astronomical": "1.907181944",
                "lunar": "741.893776216",
                "kilometers": "285310356.52485928",
                "miles": "177283634.793166864"
            },
            "orbiting_body": "Juptr"
        },
        {
            "close_approach_date": "2020-05-26",
            "close_approach_date_full": "2020-May-26 04:20",
            "epoch_date_close_approach": 1590466800000,
            "relative_velocity": {
                "kilometers_per_second": "24.6277314821",
                "kilometers_per_hour": "88659.8333356892",
                "miles_per_hour": "55089.7725523898"
            },
            "miss_distance": {
                "astronomical": "0.4002971924",
                "lunar": "155.7156078436",
                "kilometers": "59883607.350020188",
                "miles": "37209948.1590790744"
            },
            "orbiting_body": "Earth"
        },
        {
            "close_approach_date": "2040-01-03",
            "close_approach_date_full": "2040-Jan-03 20:34",
            "epoch_date_close_approach": 2209235640000,
            "relative_velocity": {
                "kilometers_per_second": "27.6263286312",
                "kilometers_per_hour": "99454.7830723427",
                "miles_per_hour": "61797.3345151454"
            },
            "miss_distance": {
                "astronomical": "0.3589709162",
                "lunar": "139.6396864018",
                "kilometers": "53701284.455468494",
                "miles": "33368430.8459294572"
            },
            "orbiting_body": "Earth"
        }
    ],
    "orbital_data": {
        "orbit_id": "16",
        "orbit_determination_date": "2020-05-20 08:01:27",
        "first_observation_date": "2020-04-16",
        "last_observation_date": "2020-05-20",
        "data_arc_in_days": 34,
        "observations_used": 108,
        "orbit_uncertainty": "6",
        "minimum_orbit_intersection": ".359314",
        "jupiter_tisserand_invariant": "3.322",
        "epoch_osculation": "2459000.5",
        "eccentricity": ".7963913709245553",
        "semi_major_axis": "1.971948675726387",
        "inclination": "23.32314366073288",
        "ascending_node_longitude": "164.9055246750138",
        "orbital_period": "1011.44398916539",
        "perihelion_distance": ".4015057664717885",
        "perihelion_argument": "185.2639536090529",
        "aphelion_distance": "3.542391584980987",
        "perihelion_time": "2459038.583540440231",
        "mean_anomaly": "346.4450481634713",
        "mean_motion": ".3559267778110582",
        "equinox": "J2000",
        "orbit_class": {
            "orbit_class_type": "APO",
            "orbit_class_description": "Near-Earth asteroid orbits which cross the Earth’s orbit similar to that of 1862 Apollo",
            "orbit_class_range": "a (semi-major axis) > 1.0 AU; q (perihelion) < 1.017 AU"
        }
    },
    "is_sentry_object": false
}